[{"OBJECT_NAME":"ZACUBE-1 (TSHEPISOSAT)","OBJECT_ID":"2013-066B","EPOCH":"2026-04-27T03:25:17.155488","MEAN_MOTION":15.00757321,"ECCENTRICITY":0.00440943,"INCLINATION":97.812,"RA_OF_ASC_NODE":79.2054,"ARG_OF_PERICENTER":63.8672,"MEAN_ANOMALY":296.7078,"EPHEMERIS_TYPE":0,"CLASSIFICATION_TYPE":"U","NORAD_CAT_ID":39417,"ELEMENT_SET_NO":999,"REV_AT_EPOCH":67307,"BSTAR":0.00044396247,"MEAN_MOTION_DOT":5.686e-5,"MEAN_MOTION_DDOT":0},{"OBJECT_NAME":"WNISAT-1","OBJECT_ID":"2013-066H","EPOCH":"2026-04-27T03:40:29.965440","MEAN_MOTION":14.58000408,"ECCENTRICITY":0.01639132,"INCLINATION":97.7134,"RA_OF_ASC_NODE":269.9521,"ARG_OF_PERICENTER":33.1117,"MEAN_ANOMALY":328.0216,"EPHEMERIS_TYPE":0,"CLASSIFICATION_TYPE":"U","NORAD_CAT_ID":39423,"ELEMENT_SET_NO":999,"REV_AT_EPOCH":65929,"BSTAR":0.00013843717,"MEAN_MOTION_DOT":7.16e-6,"MEAN_MOTION_DDOT":0},{"OBJECT_NAME":"TRITON-1","OBJECT_ID":"2013-066M","EPOCH":"2026-04-27T07:20:40.043328","MEAN_MOTION":14.81455282,"ECCENTRICITY":0.00915319,"INCLINATION":97.8272,"RA_OF_ASC_NODE":28.2736,"ARG_OF_PERICENTER":40.9389,"MEAN_ANOMALY":319.8649,"EPHEMERIS_TYPE":0,"CLASSIFICATION_TYPE":"U","NORAD_CAT_ID":39427,"ELEMENT_SET_NO":999,"REV_AT_EPOCH":66655,"BSTAR":0.00044140362,"MEAN_MOTION_DOT":3.66e-5,"MEAN_MOTION_DDOT":0},{"OBJECT_NAME":"GOMX-1","OBJECT_ID":"2013-066Q","EPOCH":"2026-04-27T07:35:01.369248","MEAN_MOTION":14.69263404,"ECCENTRICITY":0.01276322,"INCLINATION":97.6529,"RA_OF_ASC_NODE":320.9826,"ARG_OF_PERICENTER":240.6296,"MEAN_ANOMALY":118.2116,"EPHEMERIS_TYPE":0,"CLASSIFICATION_TYPE":"U","NORAD_CAT_ID":39430,"ELEMENT_SET_NO":999,"REV_AT_EPOCH":66244,"BSTAR":0.00024318611,"MEAN_MOTION_DOT":1.571e-5,"MEAN_MOTION_DDOT":0},{"OBJECT_NAME":"CUBEBUG-2 (LO-74)","OBJECT_ID":"2013-066AA","EPOCH":"2026-04-27T06:44:02.239008","MEAN_MOTION":14.93400353,"ECCENTRICITY":0.0057425,"INCLINATION":97.8874,"RA_OF_ASC_NODE":66.0709,"ARG_OF_PERICENTER":194.5511,"MEAN_ANOMALY":165.4058,"EPHEMERIS_TYPE":0,"CLASSIFICATION_TYPE":"U","NORAD_CAT_ID":39440,"ELEMENT_SET_NO":999,"REV_AT_EPOCH":66939,"BSTAR":0.00040001365,"MEAN_MOTION_DOT":4.276e-5,"MEAN_MOTION_DDOT":0},{"OBJECT_NAME":"NEE-02 KRYSAOR","OBJECT_ID":"2013-066AB","EPOCH":"2026-04-26T18:46:15.256992","MEAN_MOTION":14.86432467,"ECCENTRICITY":0.0064939,"INCLINATION":97.8867,"RA_OF_ASC_NODE":56.3801,"ARG_OF_PERICENTER":237.6988,"MEAN_ANOMALY":121.7927,"EPHEMERIS_TYPE":0,"CLASSIFICATION_TYPE":"U","NORAD_CAT_ID":39441,"ELEMENT_SET_NO":999,"REV_AT_EPOCH":66856,"BSTAR":0.00021948931,"MEAN_MOTION_DOT":1.954e-5,"MEAN_MOTION_DDOT":0},{"OBJECT_NAME":"FUNCUBE-1 (AO-73)","OBJECT_ID":"2013-066AE","EPOCH":"2026-04-26T20:52:12.795456","MEAN_MOTION":15.08754845,"ECCENTRICITY":0.00374138,"INCLINATION":97.824,"RA_OF_ASC_NODE":87.2818,"ARG_OF_PERICENTER":21.1117,"MEAN_ANOMALY":339.1645,"EPHEMERIS_TYPE":0,"CLASSIFICATION_TYPE":"U","NORAD_CAT_ID":39444,"ELEMENT_SET_NO":999,"REV_AT_EPOCH":67192,"BSTAR":0.00066839028,"MEAN_MOTION_DOT":0.00010608,"MEAN_MOTION_DDOT":0},{"OBJECT_NAME":"UWE-3","OBJECT_ID":"2013-066AG","EPOCH":"2026-04-27T03:24:35.985888","MEAN_MOTION":14.96594807,"ECCENTRICITY":0.00506292,"INCLINATION":97.8655,"RA_OF_ASC_NODE":72.9028,"ARG_OF_PERICENTER":128.8388,"MEAN_ANOMALY":231.7369,"EPHEMERIS_TYPE":0,"CLASSIFICATION_TYPE":"U","NORAD_CAT_ID":39446,"ELEMENT_SET_NO":999,"REV_AT_EPOCH":66994,"BSTAR":0.00037226643,"MEAN_MOTION_DOT":4.289e-5,"MEAN_MOTION_DDOT":0},{"OBJECT_NAME":"BRITE-CA1 (TORONTO)","OBJECT_ID":"2014-033L","EPOCH":"2026-04-27T06:46:25.179168","MEAN_MOTION":14.72600195,"ECCENTRICITY":0.00800475,"INCLINATION":97.9659,"RA_OF_ASC_NODE":247.1737,"ARG_OF_PERICENTER":80.1674,"MEAN_ANOMALY":280.856,"EPHEMERIS_TYPE":0,"CLASSIFICATION_TYPE":"U","NORAD_CAT_ID":40020,"ELEMENT_SET_NO":999,"REV_AT_EPOCH":63472,"BSTAR":0.00017416559,"MEAN_MOTION_DOT":1.113e-5,"MEAN_MOTION_DDOT":0},{"OBJECT_NAME":"DUCHIFAT-1","OBJECT_ID":"2014-033M","EPOCH":"2026-04-27T02:08:00.662784","MEAN_MOTION":15.56089814,"ECCENTRICITY":0.00042947,"INCLINATION":98.0538,"RA_OF_ASC_NODE":169.4491,"ARG_OF_PERICENTER":231.1866,"MEAN_ANOMALY":128.9004,"EPHEMERIS_TYPE":0,"CLASSIFICATION_TYPE":"U","NORAD_CAT_ID":40021,"ELEMENT_SET_NO":999,"REV_AT_EPOCH":64778,"BSTAR":0.0010062486,"MEAN_MOTION_DOT":0.00070643,"MEAN_MOTION_DDOT":0},{"OBJECT_NAME":"NANOSATC-BR1","OBJECT_ID":"2014-033Q","EPOCH":"2026-04-27T00:24:35.610912","MEAN_MOTION":15.29820947,"ECCENTRICITY":0.00036217,"INCLINATION":98.0774,"RA_OF_ASC_NODE":144.9289,"ARG_OF_PERICENTER":33.2067,"MEAN_ANOMALY":326.9398,"EPHEMERIS_TYPE":0,"CLASSIFICATION_TYPE":"U","NORAD_CAT_ID":40024,"ELEMENT_SET_NO":999,"REV_AT_EPOCH":64615,"BSTAR":0.000641184,"MEAN_MOTION_DOT":0.00018461,"MEAN_MOTION_DDOT":0},{"OBJECT_NAME":"QB50P1","OBJECT_ID":"2014-033R","EPOCH":"2026-04-26T23:49:50.179296","MEAN_MOTION":15.17436151,"ECCENTRICITY":0.00101004,"INCLINATION":98.0988,"RA_OF_ASC_NODE":124.5794,"ARG_OF_PERICENTER":50.0262,"MEAN_ANOMALY":310.1856,"EPHEMERIS_TYPE":0,"CLASSIFICATION_TYPE":"U","NORAD_CAT_ID":40025,"ELEMENT_SET_NO":999,"REV_AT_EPOCH":64526,"BSTAR":0.00047163786,"MEAN_MOTION_DOT":9.377e-5,"MEAN_MOTION_DDOT":0},{"OBJECT_NAME":"QB50P2","OBJECT_ID":"2014-033Y","EPOCH":"2026-04-27T05:41:20.275872","MEAN_MOTION":15.14485029,"ECCENTRICITY":0.0007353,"INCLINATION":98.0754,"RA_OF_ASC_NODE":110.976,"ARG_OF_PERICENTER":4.5092,"MEAN_ANOMALY":355.6203,"EPHEMERIS_TYPE":0,"CLASSIFICATION_TYPE":"U","NORAD_CAT_ID":40032,"ELEMENT_SET_NO":999,"REV_AT_EPOCH":64495,"BSTAR":0.00048193794,"MEAN_MOTION_DOT":8.805e-5,"MEAN_MOTION_DDOT":0},{"OBJECT_NAME":"PERSEUS-M2","OBJECT_ID":"2014-033AD","EPOCH":"2026-04-27T06:39:11.539296","MEAN_MOTION":14.95350191,"ECCENTRICITY":0.00134962,"INCLINATION":97.9924,"RA_OF_ASC_NODE":66.7992,"ARG_OF_PERICENTER":105.7681,"MEAN_ANOMALY":254.5028,"EPHEMERIS_TYPE":0,"CLASSIFICATION_TYPE":"U","NORAD_CAT_ID":40037,"ELEMENT_SET_NO":999,"REV_AT_EPOCH":64317,"BSTAR":0.00026885196,"MEAN_MOTION_DOT":2.91e-5,"MEAN_MOTION_DDOT":0},{"OBJECT_NAME":"PERSEUS-M1","OBJECT_ID":"2014-033AF","EPOCH":"2026-04-27T06:05:54.378240","MEAN_MOTION":14.95456591,"ECCENTRICITY":0.00131772,"INCLINATION":97.9615,"RA_OF_ASC_NODE":60.5677,"ARG_OF_PERICENTER":104.6267,"MEAN_ANOMALY":255.6415,"EPHEMERIS_TYPE":0,"CLASSIFICATION_TYPE":"U","NORAD_CAT_ID":40039,"ELEMENT_SET_NO":999,"REV_AT_EPOCH":64302,"BSTAR":0.00022578914,"MEAN_MOTION_DOT":2.441e-5,"MEAN_MOTION_DDOT":0},{"OBJECT_NAME":"POLYITAN-1","OBJECT_ID":"2014-033AJ","EPOCH":"2026-04-27T07:31:23.398464","MEAN_MOTION":15.31500269,"ECCENTRICITY":0.00060154,"INCLINATION":98.0992,"RA_OF_ASC_NODE":138.8274,"ARG_OF_PERICENTER":339.2837,"MEAN_ANOMALY":20.8158,"EPHEMERIS_TYPE":0,"CLASSIFICATION_TYPE":"U","NORAD_CAT_ID":40042,"ELEMENT_SET_NO":999,"REV_AT_EPOCH":64580,"BSTAR":0.00074119026,"MEAN_MOTION_DOT":0.00022513,"MEAN_MOTION_DDOT":0}]
